0 COSMOS 2478 (GLONASS)
1 37938U 11071A   13283.05588083  .00000068  00000-0  00000+0 0  5522
2 37938 064.9087 110.4210 0011666 230.7607 315.4737 02.13102565 14651
0 COSMOS 2478 (GLONASS)
1 37938U 11071A   13284.44497693  .00000076  00000-0  00000+0 0  5532
2 37938 064.9091 110.3741 0011666 230.6778 301.2253 02.13102561 14687
0 COSMOS 2478 (GLONASS)
1 37938U 11071A   13285.66051611  .00000084  00000-0  00000+0 0  5543
2 37938 064.9095 110.3331 0011673 230.5824 153.8418 02.13102552 14713
0 COSMOS 2478 (GLONASS)
1 37938U 11071A   13286.77049633  .00000089  00000-0  00000+0 0  5553
2 37938 064.9098 110.2956 0011692 230.5194 285.4451 02.13102552 14730
0 COSMOS 2478 (GLONASS)
1 37938U 11071A   13288.08581976  .00000088  00000-0  00000+0 0  5560
2 37938 064.9102 110.2511 0011703 230.4156 214.6217 02.13102557 14765
0 COSMOS 2478 (GLONASS)
1 37938U 11071A   13289.12776101  .00000081  00000-0  00000+0 0  5576
2 37938 064.9105 110.2160 0011710 230.3002 294.0801 02.13102557 14788
0 COSMOS 2478 (GLONASS)
1 37938U 11071A   13290.32823201  .00000068  00000-0  00000+0 0  5580
2 37938 064.9107 110.1754 0011712 230.2045 135.1366 02.13102544 14817
0 COSMOS 2478 (GLONASS)
1 37938U 11071A   13291.69292792  .00000051  00000-0  00000+0 0  5599
2 37938 064.9111 110.1294 0011709 230.1377 102.1524 02.13102530 14831
0 COSMOS 2478 (GLONASS)
1 37938U 11071A   13292.93100630  .00000039  00000-0  00000+0 0  5604
2 37938 064.9115 110.0875 0011717 229.9949 332.1069 02.13102508 14866
0 COSMOS 2478 (GLONASS)
1 37938U 11071A   13294.11790352  .00000034  00000-0  00000+0 0  5618
2 37938 064.9118 110.0474 0011717 229.9072 162.7421 02.13102490 14893
0 COSMOS 2478 (GLONASS)
1 37938U 11071A   13295.12687122  .00000035  00000-0  00000+0 0  5622
2 37938 064.9121 110.0133 0011718 229.8370 216.8579 02.13102467 14912
0 COSMOS 2478 (GLONASS)
1 37938U 11071A   13296.20656542  .00000042  00000-0  00000+0 0  5633
2 37938 064.9124 109.9768 0011736 229.6965 325.3039 02.13102459 14934
